CORVUS BC4              
1 43767U 18099K   26068.65923737  .00005714  00000+0  33980-3 0  9990
2 43767  97.4206 114.5457 0008046 356.5821   3.5354 15.11615710397368
STARLINK-3874           
1 52365U 22045AL  26068.52793145 -.00000377  00000+0 -56195-5 0  9991
2 52365  53.2159 189.8483 0001337  81.4081 278.7063 15.08840357215894
